STARLINK-3236           
1 49750U 21115AC  25077.88594095  .00001929  00000+0  13927-3 0  9999
2 49750  53.2185 306.3965 0001432  81.4016 278.7138 15.08842455181821
STARLINK-3229           
1 49751U 21115AD  25077.86657335  .00018193  00000+0  11575-2 0  9992
2 49751  53.2175 306.3957 0001194  97.0927 263.0201 15.08861971181823
STARLINK-3209           
1 49752U 21115AE  25077.90158325  .00001314  00000+0  10062-3 0  9991
2 49752  53.2176 296.3246 0001186  84.6913 275.4214 15.08837967181966
STARLINK-3200           
1 49753U 21115AF  25077.88130144  .00004684  00000+0  31213-3 0  9992
2 49753  53.2161 306.4061 0001161 105.9321 254.1799 15.08848977181822
STARLINK-3193           
1 49754U 21115AG  25077.90432286  .00000476  00000+0  47994-4 0  9997
2 49754  53.2181 296.4083 0001338  97.9417 262.1727 15.08831991181962
STARLINK-3210           
1 49755U 21115AH  25077.89330256 -.00002246  00000+0 -12304-3 0  9995
2 49755  53.2167 306.3990 0001394  85.7525 274.3627 15.08840793181821
STARLINK-3207           
1 49756U 21115AJ  25077.84542389 -.00000611  00000+0 -20271-4 0  9990
2 49756  53.2180 296.5688 0001255  89.2477 270.8659 15.08847048181952
STARLINK-3197           
1 49757U 21115AK  25077.83902177  .00000448  00000+0  46264-4 0  9991
2 49757  53.2171 296.6070 0001330  97.8135 262.3008 15.08839275181956
STARLINK-3194           
1 49758U 21115AL  25077.85278869  .00005792  00000+0  38155-3 0  9994
2 49758  53.2165 296.5344 0000988  93.5407 266.5698 15.08852960183067
STARLINK-3204           
1 49759U 21115AM  25077.90796947 -.00012692  00000+0 -77953-3 0  9991
2 49759  53.2183 296.2888 0001008 112.8589 247.2510 15.08897715181961
STARLINK-3199           
1 49760U 21115AN  25077.86014625  .00001344  00000+0  10250-3 0  9991
2 49760  53.2177 296.5002 0001362  86.9509 273.1639 15.08840429181963
STARLINK-3203           
1 49761U 21115AP  25077.84910362  .00001183  00000+0  92369-4 0  9996
2 49761  53.2181 296.5521 0001249 101.7328 258.3804 15.08841232181955
STARLINK-3195           
1 49762U 21115AQ  25077.86751366 -.00000602  00000+0 -19711-4 0  9993
2 49762  53.2177 296.4627 0001491  98.1600 261.9561 15.08827840181968
STARLINK-3198           
1 49763U 21115AR  25077.85647063  .00010655  00000+0  68609-3 0  9997
2 49763  53.2162 296.5167 0000993  98.0711 262.0394 15.08864553181969
STARLINK-3227           
1 49765U 21115AT  25077.86478253 -.00000900  00000+0 -38414-4 0  9999
2 49765  53.2172 296.4817 0002041  80.8662 279.2561 15.08845930181967
STARLINK-3190           
1 49766U 21115AU  25077.87950085  .00000638  00000+0  58139-4 0  9991
2 49766  53.2176 296.4233 0001330  94.6012 265.5133 15.08843105181961
STARLINK-3192           
1 49767U 21115AV  25077.87118445  .00001476  00000+0  11077-3 0  9998
2 49767  53.2160 296.4487 0001311  87.9776 272.1366 15.08841810181960
STARLINK-3196           
1 49768U 21115AW  25077.81966153 -.00000231  00000+0  35566-5 0  9990
2 49768  53.2179 296.6819 0001166  99.0040 261.1085 15.08843718181952
STARLINK-3208           
1 49769U 21115AX  25077.88686499  .00000585  00000+0  54839-4 0  9994
2 49769  53.2186 296.4271 0001561 101.2052 258.9116 15.08843671181967
STARLINK-3191           
1 49770U 21115AY  25077.82799955 -.00000934  00000+0 -40615-4 0  9999
2 49770  53.2173 296.6921 0001190  92.1109 268.0019 15.08838415183065
STARLINK-3201           
1 49771U 21115AZ  25077.89326668  .00000277  00000+0  35508-4 0  9997
2 49771  53.2175 296.3494 0001428  87.4074 272.7082 15.08837275181964
STARLINK-3317           
1 50156U 21125A   25077.90985451  .00000194  00000+0  30278-4 0  9997
2 50156  53.2167  46.2773 0001383  93.5217 266.5933 15.08846959182925
STARLINK-3313           
1 50157U 21125B   25077.33757549  .00001008  00000+0  81390-4 0  9996
2 50157  53.2178  58.8435 0001789  84.8128 275.3068 15.08853109182704
STARLINK-3309           
1 50158U 21125C   25077.32749914  .00002813  00000+0  19476-3 0  9993
2 50158  53.2175  58.9027 0001459  87.8003 272.3156 15.08839160182727
STARLINK-3297           
1 50159U 21125D   25077.32381571  .00001479  00000+0  11099-3 0  9995
2 50159  53.2176  58.9192 0001408  94.1065 266.0088 15.08845486182659
STARLINK-3304           
1 50161U 21125F   25077.93006713  .00006393  00000+0  41911-3 0  9993
2 50161  53.2163  56.1894 0001838  80.1843 279.9357 15.08863476182744
STARLINK-3306           
1 50163U 21125H   25077.31733981  .00000799  00000+0  68255-4 0  9996
2 50163  53.2188  38.9243 0001462 100.5274 259.5882 15.08843590182930
STARLINK-3298           
1 50165U 21125K   25077.31918199  .00001799  00000+0  13109-3 0  9992
2 50165  53.2186  58.9293 0001632  91.9642 268.1537 15.08841708182705
STARLINK-3305           
1 50166U 21125L   25077.20328324 -.00005615  00000+0 -33489-3 0  9992
2 50166  53.2184  49.3796 0001278 100.2706 259.8430 15.08845856182771
STARLINK-3271           
1 50167U 21125M   25077.18030378  .00000352  00000+0  40242-4 0  9996
2 50167  53.2186  59.5641 0001487  98.7909 261.3251 15.08835320182150
STARLINK-3296           
1 50168U 21125N   25077.21435173  .00005003  00000+0  33215-3 0  9992
2 50168  53.2188  49.4928 0001585  95.9914 264.1259 15.08843293182789
STARLINK-3301           
1 50169U 21125P   25077.24281752  .00001750  00000+0  12801-3 0  9991
2 50169  53.2179  49.2712 0001490  90.7007 269.4156 15.08844752182796
STARLINK-3245           
1 50170U 21125Q   25077.33114395  .00016975  00000+0  10811-2 0  9994
2 50170  53.2173  48.8724 0002019  81.4720 278.6500 15.08872139182792
STARLINK-3286           
1 50171U 21125R   25077.34586282  .00000674  00000+0  60437-4 0  9994
2 50171  53.2182  48.8078 0001402  95.0075 265.1077 15.08837635182808
STARLINK-3287           
1 50172U 21125S   25077.19129742  .00001204  00000+0  93727-4 0  9990
2 50172  53.2170  49.5013 0001356  86.0559 274.0588 15.08844384182814
STARLINK-3289           
1 50173U 21125T   25077.29158047  .00001470  00000+0  11043-3 0  9997
2 50173  53.2190  39.1174 0001601 101.3680 258.7492 15.08850923182942
STARLINK-3292           
1 50174U 21125U   25077.22407157  .00001641  00000+0  12115-3 0  9991
2 50174  53.2176  44.9660 0001576  86.2256 273.8916 15.08843432182892
STARLINK-3291           
1 50175U 21125V   25077.20233643 -.00004151  00000+0 -24278-3 0  9991
2 50175  53.2190  49.4520 0001482  89.9807 270.1355 15.08853357182784
STARLINK-3293           
1 50176U 21125W   25077.91258373  .00000238  00000+0  33028-4 0  9991
2 50176  53.2178  46.2656 0001315  85.5172 274.5970 15.08836614182933
STARLINK-3282           
1 50177U 21125X   25077.92360180  .00001892  00000+0  13687-3 0  9998
2 50177  53.2183  46.2160 0001712  96.2863 263.8324 15.08851492182897
STARLINK-3284           
1 50178U 21125Y   25077.93560077  .00002302  00000+0  16267-3 0  9991
2 50178  53.2173  46.0142 0001418 100.4570 259.6582 15.08844860182936
STARLINK-3283           
1 50179U 21125Z   25077.32009875  .00003036  00000+0  20869-3 0  9997
2 50179  53.2174  48.9231 0001542  97.6805 262.4362 15.08856504182806
STARLINK-3265           
1 50180U 21125AA  25077.90249743  .00001185  00000+0  92542-4 0  9994
2 50180  53.2182  46.3203 0001470  88.1433 271.9727 15.08844283182935
STARLINK-3285           
1 50181U 21125AB  25077.29897962  .00000670  00000+0  60204-4 0  9997
2 50181  53.2177  49.0313 0001854  97.5547 262.5656 15.08845590182803
STARLINK-3277           
1 50182U 21125AC  25077.87208126  .00000573  00000+0  54090-4 0  9998
2 50182  53.2183  46.2921 0001442 107.8549 252.2601 15.08840668182925
STARLINK-3281           
1 50183U 21125AD  25077.29431328 -.00008985  00000+0 -54717-3 0  9999
2 50183  53.2172  49.0388 0001529  80.2974 279.8190 15.08838529179718
STARLINK-3279           
1 50185U 21125AF  25077.90154420  .00002870  00000+0  19829-3 0  9994
2 50185  53.2169  46.3514 0001586  91.5066 268.6108 15.08846258182893
STARLINK-3274           
1 50186U 21125AG  25077.38174064  .00002872  00000+0  19844-3 0  9992
2 50186  53.2172  58.6473 0001361  92.7597 267.3551 15.08844824182661
STARLINK-3272           
1 50187U 21125AH  25077.27685489  .00000262  00000+0  34573-4 0  9997
2 50187  53.2186  39.1200 0001440  84.9314 275.1843 15.08851052182917
STARLINK-3275           
1 50188U 21125AJ  25077.91668981  .00098202  00000+0  19071-2 0  9992
2 50188  53.2102 339.2988 0006003 142.6719 289.6833 15.46851983  5956
STARLINK-3276           
1 50189U 21125AK  25077.88042183  .00000160  00000+0  28138-4 0  9991
2 50189  53.2167  46.4185 0001699  90.3015 269.8171 15.08839596182920
STARLINK-3268           
1 50190U 21125AL  25077.19958202  .00001254  00000+0  96875-4 0  9993
2 50190  53.2184  39.4646 0001422  89.3827 270.7328 15.08841384182910
STARLINK-3273           
1 50191U 21125AM  25077.34126059  .00001233  00000+0  95545-4 0  9998
2 50191  53.2166  58.8250 0001454 102.1158 257.9997 15.08846350182651
STARLINK-3259           
1 50192U 21125AN  25077.85829438 -.00006122  00000+0 -36681-3 0  9995
2 50192  53.2196  36.5068 0001670  95.2447 264.8736 15.08844989183013
STARLINK-3261           
1 50193U 21125AP  25077.86934035  .00002226  00000+0  15790-3 0  9994
2 50193  53.2186  36.4576 0001620  81.8333 278.2843 15.08844411183069
STARLINK-3269           
1 50194U 21125AQ  25077.87644347  .00043661  00000+0  18549-2 0  9992
2 50194  53.2187  28.9528 0000328  89.5839 270.5196 15.22658210183178
STARLINK-3266           
1 50195U 21125AR  25077.86566505  .00000820  00000+0  69608-4 0  9995
2 50195  53.2193  36.4795 0001768  80.2131 279.9060 15.08846595183013
STARLINK-3267           
1 50197U 21125AT  25077.12230465  .00000266  00000+0  34802-4 0  9991
2 50197  53.2175  39.8114 0001259  85.0224 275.0912 15.08837568182953
STARLINK-3264           
1 50198U 21125AU  25077.90246116  .00000456  00000+0  46735-4 0  9997
2 50198  53.2182  36.3023 0001680 120.9414 239.1743 15.08838016183022
